IRIDIUM 33 DEB          
1 34154U 97051EH  09118.13211128  .75356544  00000-0  64551+0 0  1022
2 34154  86.3986  91.5094 0154613 119.8557 242.1605 15.47759608 10343
IRIDIUM 33 DEB          
1 34155U 97051EJ  09117.99538777  .00000942  00000-0  38756-3 0   474
2 34155  86.4889  91.0067 0041212 200.9753 158.9749 14.25506617 10328
IRIDIUM 33 DEB          
1 34156U 97051EK  09117.86719279  .00001184  00000-0  47834-3 0   464
2 34156  86.3169  88.9575 0038519 173.0882 187.0850 14.26680364 10236
IRIDIUM 33 DEB          
1 34157U 97051EL  09118.64258798  .00001747  00000-0  64589-3 0   524
2 34157  86.3859  89.2171 0014857 145.2244 214.9843 14.31813892 10592
IRIDIUM 33 DEB          
1 34158U 97051EM  09118.38855109  .00004520  00000-0  19754-2 0   317
2 34158  86.4088  90.0839 0070915 146.9948 213.5841 14.22291993 10354
IRIDIUM 33 DEB          
1 34159U 97051EN  09118.42947951  .00000180  00000-0  63216-4 0   503
2 34159  86.3487  88.9840 0030593 226.9679 132.8941 14.29142021 10339
IRIDIUM 33 DEB          
1 34160U 97051EP  09118.43004010  .00001745  00000-0  76006-3 0   504
2 34160  86.4179  90.1325 0052491 192.2863 167.7006 14.22732655 10288
IRIDIUM 33 DEB          
1 34161U 97051EQ  09118.70800343  .00462814  00000-0  30582-1 0   840
2 34161  86.1563  86.9920 0306329  64.4111 297.5207 14.74862262 10454
IRIDIUM 33 DEB          
1 34162U 97051ER  09118.39500464  .00007024  00000-0  25393-2 0   525
2 34162  86.4228  89.7209 0044568 104.3434 256.2788 14.32843044 10001
IRIDIUM 33 DEB          
1 34350U 97051ES  09118.00206587  .00000188  00000-0  58164-4 0   473
2 34350  86.3270  88.5347 0022237 297.2051  62.6869 14.35843010  9522
IRIDIUM 33 DEB          
1 34351U 97051ET  09117.97222117  .00000821  00000-0  27721-3 0   430
2 34351  86.4305  89.8345 0050275 279.1742  80.3737 14.35138460  9992
IRIDIUM 33 DEB          
1 34352U 97051EU  09118.67618257  .00005238  00000-0  20124-2 0   473
2 34352  86.3953  89.3470 0023339 165.1520 195.0275 14.30133388  9589
IRIDIUM 33 DEB          
1 34353U 97051EV  09118.68002358  .00003779  00000-0  15255-2 0   459
2 34353  86.3118  88.5175 0032250 179.0159 181.1043 14.27418631 10337
IRIDIUM 33 DEB          
1 34354U 97051EW  09117.93770267  .00001430  00000-0  55327-3 0   411
2 34354  86.2337  87.8409 0072617 119.8627 240.9763 14.27957918 10109
IRIDIUM 33 DEB          
1 34355U 97051EX  09118.36261398  .00024632  00000-0  80040-2 0   799
2 34355  86.3343  88.4200 0073971 104.8864 256.1169 14.37136743  9928
IRIDIUM 33 DEB          
1 34356U 97051EY  09117.91020632  .00001761  00000-0  69285-3 0   487
2 34356  86.3884  89.6951 0027384 168.1788 192.0037 14.28504083  9478
IRIDIUM 33 DEB          
1 34357U 97051EZ  09118.41607327  .00005415  00000-0  26754-2 0   478
2 34357  86.4149  90.4876 0087408 185.4274 174.6043 14.15250105  9444
IRIDIUM 33 DEB          
1 34358U 97051FA  09118.35608992  .00001152  00000-0  43351-3 0   401
2 34358  86.3346  88.7493 0019519 152.2401 208.0297 14.30562506 10184
IRIDIUM 33 DEB          
1 34359U 97051FB  09117.39180882  .00001115  00000-0  38343-3 0   413
2 34359  86.3702  89.3973 0056273  94.8080 265.9572 14.34268427  9773
IRIDIUM 33 DEB          
1 34360U 97051FC  09117.88126777  .00001756  00000-0  61869-3 0   445
2 34360  86.3613  89.0717 0007836 280.6345  79.3894 14.34292691  9706
IRIDIUM 33 DEB          
1 34361U 97051FD  09117.90006701  .00001826  00000-0  78664-3 0   431
2 34361  86.3869  89.9252 0048828 191.2768 168.7299 14.23426395  9570
IRIDIUM 33 DEB          
1 34362U 97051FE  09117.98454583  .00003369  00000-0  12987-2 0   513
2 34362  86.3887  89.6139 0028177 150.8384 209.4430 14.29809198  9798
IRIDIUM 33 DEB          
1 34363U 97051FF  09118.40654485  .00001763  00000-0  79717-3 0   437
2 34363  86.3620  89.5849 0061582 195.7509 164.1763 14.20542193  9656
IRIDIUM 33 DEB          
1 34364U 97051FG  09118.61157559  .00001741  00000-0  66870-3 0   444
2 34364  86.3774  89.2032 0021874 164.4512 195.7256 14.29795910 10256
IRIDIUM 33 DEB          
1 34365U 97051FH  09117.89841470  .00006039  00000-0  23719-2 0   467
2 34365  86.2978  88.5743 0024257 191.1916 168.8701 14.29023646 10140
IRIDIUM 33 DEB          
1 34366U 97051FJ  09117.91776078  .00000369  00000-0  13963-3 0   430
2 34366  86.3756  89.5586 0034565 226.9703 132.8573 14.28250702 10182
IRIDIUM 33 DEB          
1 34367U 97051FK  09118.43158819  .00001665  00000-0  69252-3 0   450
2 34367  86.4297  90.1471 0044060 206.9268 152.9634 14.25304769 10169
IRIDIUM 33 DEB          
1 34368U 97051FL  09117.63294824  .00001397  00000-0  71115-3 0   430
2 34368  86.3997  90.7424 0099920 193.1349 166.7228 14.12585195  9757
IRIDIUM 33 DEB          
1 34369U 97051FM  09117.67015717  .00007828  00000-0  31153-2 0   338
2 34369  86.3593  89.4037 0038155 146.8528 213.5033 14.28132768  9602
IRIDIUM 33 DEB          
1 34370U 97051FN  09118.64638723  .00013661  00000-0  51767-2 0   319
2 34370  86.3591  88.8672 0021741  99.7192 260.6440 14.30913991 10049
IRIDIUM 33 DEB          
1 34371U 97051FP  09118.37811241  .00042504  00000-0  94843-2 0   846
2 34371  86.3426  87.6356 0098068  33.2736 327.4837 14.53640054  9891
IRIDIUM 33 DEB          
1 34372U 97051FQ  09117.88430943  .00003217  00000-0  85019-3 0   448
2 34372  86.4830  89.8922 0061258  10.7635 349.4815 14.47492063 10962
IRIDIUM 33 DEB          
1 34373U 97051FR  09117.87951592  .00002689  00000-0  10261-2 0   488
2 34373  86.3923  89.6739 0017204 179.0051 181.1172 14.30398326  9629
IRIDIUM 33 DEB          
1 34374U 97051FS  09117.90061503  .00001935  00000-0  79618-3 0   381
2 34374  86.4907  91.0499 0038882 172.5228 187.6551 14.26059390 10592
IRIDIUM 33 DEB          
1 34375U 97051FT  09117.68286885  .00000338  00000-0  17045-3 0   381
2 34375  86.4320  91.1873 0110751 194.1227 165.6823 14.10252117 10452
IRIDIUM 33 DEB          
1 34376U 97051FU  09117.97425862  .00000688  00000-0  28550-3 0   419
2 34376  86.3156  89.0075 0044814 200.2311 159.7121 14.24575074 10593
IRIDIUM 33 DEB          
1 34377U 97051FV  09118.42769096  .00038408  00000-0  86530-2 0   671
2 34377  86.3776  88.1750 0120983  55.1866 306.0846 14.51723047 10569
IRIDIUM 33 DEB          
1 34378U 97051FW  09118.64867662  .00002015  00000-0  10164-2 0   433
2 34378  86.3722  89.9679 0096335 185.6205 174.3913 14.13459620 10044
IRIDIUM 33 DEB          
1 34379U 97051FX  09118.33936411  .00007037  00000-0  22592-2 0   278
2 34379  86.2398  87.1936 0070645  81.1599 279.7651 14.37886060 10172
IRIDIUM 33 DEB          
1 34483U 97051FY  09118.35955748  .00006807  00000-0  17268-2 0   278
2 34483  86.1780  86.0788 0137590  67.1590 294.4235 14.45094633 10272
IRIDIUM 33 DEB          
1 34484U 97051FZ  09117.06813576  .00012267  00000-0  12226-2 0   487
2 34484  86.2902  86.2200 0194986 351.2321   8.5395 14.78278061 10256
IRIDIUM 33 DEB          
1 34485U 97051GA  09118.33944200  .00003641  00000-0  60579-3 0   333
2 34485  86.2840  86.4077 0151374  22.9177 337.8790 14.62415360  9238
IRIDIUM 33 DEB          
1 34486U 97051GB  09118.29226210  .00000558  00000-0  17677-3 0   428
2 34486  86.4131  89.3412 0023154 328.2645  31.7157 14.38270224  9930
IRIDIUM 33 DEB          
1 34487U 97051GC  09118.33182082  .00000161  00000-0  47107-4 0   389
2 34487  86.3442  88.4967 0031707 301.8162  57.9931 14.37496924  9031
IRIDIUM 33 DEB          
1 34488U 97051GD  09117.98615930  .00000539  00000-0  16376-3 0   408
2 34488  86.3486  88.5741 0031214 336.1893  23.7828 14.40109758 10292
IRIDIUM 33 DEB          
1 34489U 97051GE  09118.36045514  .00001180  00000-0  61395-3 0   399
2 34489  86.4267  90.8382 0107575 189.3091 170.6143 14.10903410  9485
IRIDIUM 33 DEB          
1 34490U 97051GF  09117.61605991  .00001607  00000-0  65899-3 0   251
2 34490  86.3407  89.3593 0040250 208.5874 151.3094 14.26103716  9702
IRIDIUM 33 DEB          
1 34491U 97051GG  09117.20078592  .00002651  00000-0  13530-2 0   308
2 34491  86.4133  91.0833 0100918 177.2114 182.9710 14.12724676  8909
IRIDIUM 33 DEB          
1 34492U 97051GH  09118.33786394  .00001169  00000-0  94007-3 0   346
2 34492  86.5216  93.8997 0313213 224.0964 133.4960 13.69459845  9680
IRIDIUM 33 DEB          
1 34493U 97051GJ  09117.88423006  .00001189  00000-0  45468-3 0   387
2 34493  86.2798  88.4428 0090453 116.3421 244.7043 14.27630074  8958
IRIDIUM 33 DEB          
1 34494U 97051GK  09117.38360533  .00007333  00000-0  31216-2 0   447
2 34494  86.1844  87.8795 0138304 128.2637 233.1479 14.20038276  9909
IRIDIUM 33 DEB          
1 34495U 97051GL  09118.43142848  .00002748  00000-0  48485-3 0   411
2 34495  86.4873  88.9522 0127073 355.1908   4.8050 14.61928519 10417
IRIDIUM 33 DEB          
1 34496U 97051GM  09115.39974516  .00018481  00000-0  11083-1 0   232
2 34496  86.4679  92.5857 0136537 221.5972 139.5308 14.02298322  9075
IRIDIUM 33 DEB          
1 34497U 97051GN  09118.34811691  .00000178  00000-0  79225-4 0   469
2 34497  86.2825  88.9135 0093336 208.8424 150.7603 14.14988093  8801
IRIDIUM 33 DEB          
1 34498U 97051GP  09110.70248736  .00516263  00000-0  33988+0 0   161
2 34498  86.4416  94.9722 0215456 236.4213 191.2367 13.88625001  8254
IRIDIUM 33 DEB          
1 34499U 97051GQ  09118.37652682  .00001627  00000-0  38785-3 0   394
2 34499  86.3993  88.6543 0123158  56.5722 304.7193 14.48530578  9012
IRIDIUM 33 DEB          
1 34500U 97051GR  09117.89308064  .00006423  00000-0  27626-2 0   294
2 34500  86.4169  90.2203 0044400 204.3662 155.5403 14.23990030  9686
IRIDIUM 33 DEB          
1 34501U 97051GS  09114.37163851  .00022365  00000-0  38716-2 0   293
2 34501  86.2910  88.0836 0198719  52.2132 309.6239 14.56040416  9422
IRIDIUM 33 DEB          
1 34502U 97051GT  09118.36674777  .00004525  00000-0  13894-2 0   244
2 34502  86.3314  88.1320 0034435  28.9449 331.3636 14.41109033 10055
IRIDIUM 33 DEB          
1 34503U 97051GU  09118.06601514  .00000759  00000-0  22720-3 0   403
2 34503  86.3159  88.0747 0034875  16.4148 343.8145 14.41252136  9549
